{"spkid": "50644725", "covariance": {"elements": [{"label": "e", "sigma": 1.91265191668797e-07, "name": "e", "units": null, "value": ".5110368261960764", "title": "eccentricity"}, {"label": "q", "sigma": 1.83719600644897e-07, "name": "q", "value": ".4687049276403122", "title": "perihelion distance", "units": "au"}, {"name": "tp", "sigma": 1.71553899873666e-05, "units": "TDB", "title": "time of perihelion passage", "value": "2456752.176093536852", "label": "tp"}, {"label": "node", "units": "deg", "value": "275.633666390853", "title": "longitude of the ascending node", "sigma": 6.94198057729826e-06, "name": "om"}, {"label": "peri", "units": "deg", "title": "argument of perihelion", "value": "227.7931444701511", "name": "w", "sigma": 9.61849956023556e-06}, {"sigma": 2.31060487909016e-05, "name": "i", "title": "inclination", "value": "29.29325410962198", "units": "deg", "label": "i"}], "data": [["3.658237354410166E-14", "-3.513782485511849E-14", "2.853999027330682E-12", "3.175332563139691E-13", "-1.17755955219176E-12", "8.100764820044486E-13"], ["-3.513782485511849E-14", "3.375289166112056E-14", "-2.73760847021588E-12", "-3.058218115976214E-13", "1.132833451131383E-12", "-7.785801525767394E-13"], ["2.853999027330682E-12", "-2.73760847021588E-12", "2.943074056186372E-10", "1.334678155306773E-11", "-5.316471633958943E-11", "5.586762473504241E-11"], ["3.175332563139691E-13", "-3.058218115976214E-13", "1.334678155306773E-11", "4.819109433558633E-11", "-4.276983201641179E-11", "6.365179068042631E-11"], ["-1.17755955219176E-12", "1.132833451131383E-12", "-5.316471633958943E-11", "-4.276983201641179E-11", "9.251553379025159E-11", "-7.360656138214156E-11"], ["8.100764820044486E-13", "-7.785801525767394E-13", "5.586762473504241E-11", "6.365179068042631E-11", "-7.360656138214156E-11", "5.338894907275271E-10"]], "labels": ["e", "q", "tp", "node", "peri", "i"], "epoch": "2456799.5"}, "elements": [{"label": "e", "units": null, "title": "eccentricity", "value": ".5111771470737005", "sigma": "1.9137E-7", "name": "e"}, {"name": "a", "sigma": "3.3544E-9", "title": "semi-major axis", "value": ".9584706278731586", "units": "au", "label": "a"}, {"label": "q", "value": ".4685223467630189", "title": "perihelion distance", "units": "au", "name": "q", "sigma": "1.8375E-7"}, {"label": "i", "name": "i", "sigma": "2.31E-5", "value": "29.28603238461865", "title": "inclination; angle with respect to x-y ecliptic plane", "units": "deg"}, {"units": "deg", "title": "longitude of the ascending node", "value": "275.5818395801084", "sigma": "6.9565E-6", "name": "om", "label": "node"}, {"label": "peri", "sigma": "9.6114E-6", "name": "w", "value": "227.8138527853599", "title": "argument of perihelion", "units": "deg"}, {"label": "M", "title": "mean anomaly", "value": "352.3282274506678", "units": "deg", "sigma": "2.9667E-5", "name": "ma"}, {"label": "tp", "name": "tp", "sigma": "2.8276E-5", "value": "2461207.803984744654", "title": "time of perihelion passage", "units": "TDB"}, {"sigma": "1.7993E-6", "name": "per", "title": "sidereal orbital period", "value": "342.7414578791372", "units": "d", "label": "period"}, {"name": "n", "sigma": "5.5139E-9", "units": "deg/d", "title": "mean motion", "value": "1.050354404826477", "label": "n"}, {"label": "Q", "units": "au", "value": "1.448418908983298", "title": "aphelion distance", "name": "ad", "sigma": "5.0691E-9"}], "epoch": "2461200.5"}